[
    {
        "id": 5899,
        "name": "STARLINK-32238",
        "distance_km": 356.26,
        "elevation_deg": 86.81,
        "visible": true,
        "latitude": 51.78029410367513,
        "longitude": 6.374240152394911,
        "datetime_utc": "2025-09-01T21:03:18.643000",
        "tle": {
            "line-1": "1 61661U 24193A   25244.27482505  .00009601  00000+0  33572-3 0  9997",
            "line-2": "2 61661  53.1614 251.0176 0001669  86.0452 274.0740 15.30213856 47527"
        }
    },
    {
        "id": 6864,
        "name": "STARLINK-32543",
        "distance_km": 252.22,
        "elevation_deg": 87.74,
        "visible": true,
        "latitude": 51.41974715757058,
        "longitude": 7.789673560514371,
        "datetime_utc": "2025-09-01T21:03:18.643000",
        "tle": {
            "line-1": "1 63364U 25063B   25244.20934977  .00061483  00000+0  15337-2 0  9998",
            "line-2": "2 63364  53.1572 214.4079 0001325  96.5944 263.5212 15.39638811 25713"
        }
    },
    {
        "id": 6866,
        "name": "STARLINK-33742",
        "distance_km": 461.73,
        "elevation_deg": 85.86,
        "visible": true,
        "latitude": 51.898999494512985,
        "longitude": 4.851906749722241,
        "datetime_utc": "2025-09-01T21:03:18.643000",
        "tle": {
            "line-1": "1 63366U 25063D   25244.20967893  .00051169  00000+0  12808-2 0  9993",
            "line-2": "2 63366  53.1567 214.3976 0001260  83.3226 276.7923 15.39615662 25678"
        }
    },
    {
        "id": 7508,
        "name": "STARLINK-33934",
        "distance_km": 361.27,
        "elevation_deg": 86.76,
        "visible": true,
        "latitude": 52.84030449229012,
        "longitude": 15.633545219926493,
        "datetime_utc": "2025-09-01T21:03:18.643000",
        "tle": {
            "line-1": "1 64187U 25113T   25244.27378447  .00057446  00000+0  19352-2 0  9994",
            "line-2": "2 64187  53.1590 251.0263 0001221  98.7453 261.3686 15.30224865 16029"
        }
    },
    {
        "id": 7530,
        "name": "STARLINK-34349",
        "distance_km": 477.64,
        "elevation_deg": 85.71,
        "visible": true,
        "latitude": 46.73052277318239,
        "longitude": 10.375646800148731,
        "datetime_utc": "2025-09-01T21:03:18.643000",
        "tle": {
            "line-1": "1 64215U 25117N   25244.20303164  .00033430  00000+0  11351-2 0  9995",
            "line-2": "2 64215  53.1593 199.8073 0001244  77.0030 283.1110 15.30218730 15519"
        }
    },
    {
        "id": 7592,
        "name": "STARLINK-34359",
        "distance_km": 466.07,
        "elevation_deg": 85.81,
        "visible": true,
        "latitude": 47.31440110554182,
        "longitude": 14.430978154002323,
        "datetime_utc": "2025-09-01T21:03:18.643000",
        "tle": {
            "line-1": "1 64280U 25120AA  25244.25002315 -.00003904  00000+0 -11978-3 0  9991",
            "line-2": "2 64280  53.1597 276.8022 0001807  80.2853 130.9630 15.30189721  5892"
        }
    },
    {
        "id": 7593,
        "name": "STARLINK-34366",
        "distance_km": 463.15,
        "elevation_deg": 85.84,
        "visible": true,
        "latitude": 47.42813031063995,
        "longitude": 14.652562159817945,
        "datetime_utc": "2025-09-01T21:03:18.643000",
        "tle": {
            "line-1": "1 64281U 25120AB  25244.28069436  .00045653  00000+0  11431-2 0  9990",
            "line-2": "2 64281  53.1585 276.7005 0001670  74.9568 285.1622 15.39656156 14862"
        }
    },
    {
        "id": 131,
        "name": "STARLINK-1312",
        "distance_km": 158.87,
        "elevation_deg": 88.57,
        "visible": true,
        "latitude": 52.05758247088504,
        "longitude": 12.830469507073962,
        "datetime_utc": "2025-09-01T21:13:18.643000",
        "tle": {
            "line-1": "1 45398U 20019AQ  25244.25002315  .00157651  00000+0  16571-2 0  9992",
            "line-2": "2 45398  53.0527 257.3083 0012500 356.2371 115.1253 15.63236239  5997"
        }
    },
    {
        "id": 145,
        "name": "STARLINK-1329",
        "distance_km": 224.74,
        "elevation_deg": 87.98,
        "visible": true,
        "latitude": 52.99218284356266,
        "longitude": 11.602103212384806,
        "datetime_utc": "2025-09-01T21:13:18.643000",
        "tle": {
            "line-1": "1 45531U 20025A   25244.26979045  .00000695  00000+0  65518-4 0  9994",
            "line-2": "2 45531  53.0542 236.9574 0001082  77.8035 282.3075 15.06397734296544"
        }
    },
    {
        "id": 165,
        "name": "STARLINK-1376",
        "distance_km": 275.37,
        "elevation_deg": 87.53,
        "visible": true,
        "latitude": 51.43378494143405,
        "longitude": 7.4560280492733195,
        "datetime_utc": "2025-09-01T21:13:18.643000",
        "tle": {
            "line-1": "1 45570U 20025AR  25244.20162121 -.00001334  00000+0 -70721-4 0  9995",
            "line-2": "2 45570  53.0535 217.2635 0001044  84.4555 275.6553 15.06377050296802"
        }
    },
    {
        "id": 239,
        "name": "STARLINK-1582",
        "distance_km": 299.72,
        "elevation_deg": 87.31,
        "visible": true,
        "latitude": 52.3688745858044,
        "longitude": 15.042633031363817,
        "datetime_utc": "2025-09-01T21:13:18.643000",
        "tle": {
            "line-1": "1 46043U 20055S   25244.27163717 -.00000236  00000+0  30354-5 0  9991",
            "line-2": "2 46043  53.0540 256.9523 0001178  85.4961 274.6163 15.06390529280333"
        }
    },
    {
        "id": 687,
        "name": "STARLINK-2535",
        "distance_km": 292.45,
        "elevation_deg": 87.37,
        "visible": true,
        "latitude": 48.84385918076001,
        "longitude": 13.705903915730058,
        "datetime_utc": "2025-09-01T21:13:18.643000",
        "tle": {
            "line-1": "1 48295U 21036V   25244.20021862  .00001435  00000+0  11523-3 0  9995",
            "line-2": "2 48295  53.0543 212.2681 0001488  91.5886 268.5273 15.06391748239753"
        }
    },
    {
        "id": 821,
        "name": "STARLINK-2190",
        "distance_km": 196.61,
        "elevation_deg": 88.24,
        "visible": true,
        "latitude": 50.51369372151592,
        "longitude": 8.642345332521808,
        "datetime_utc": "2025-09-01T21:13:18.643000",
        "tle": {
            "line-1": "1 48564U 21041M   25244.27299990  .00004608  00000+0  32786-3 0  9995",
            "line-2": "2 48564  53.0534 261.9457 0001260  85.9391 274.1742 15.06417639236658"
        }
    },
    {
        "id": 1030,
        "name": "STARLINK-3190",
        "distance_km": 160.5,
        "elevation_deg": 88.56,
        "visible": true,
        "latitude": 49.53987591030482,
        "longitude": 11.485856603962091,
        "datetime_utc": "2025-09-01T21:13:18.643000",
        "tle": {
            "line-1": "1 49766U 21115AU  25244.27456001  .00001214  00000+0  94341-4 0  9996",
            "line-2": "2 49766  53.2169 269.4501 0001346  89.1213 270.9933 15.08840139207084"
        }
    },
    {
        "id": 1415,
        "name": "STARLINK-3783",
        "distance_km": 189.17,
        "elevation_deg": 88.3,
        "visible": true,
        "latitude": 52.649202827312266,
        "longitude": 11.845464186774592,
        "datetime_utc": "2025-09-01T21:13:18.643000",
        "tle": {
            "line-1": "1 52282U 22041X   25244.26992263  .00000612  00000+0  56534-4 0  9999",
            "line-2": "2 52282  53.2163 229.4608 0001394  82.1528 277.9623 15.08837897185900"
        }
    },
    {
        "id": 1669,
        "name": "STARLINK-4032",
        "distance_km": 294.51,
        "elevation_deg": 87.35,
        "visible": true,
        "latitude": 48.63401646004194,
        "longitude": 13.229842344199248,
        "datetime_utc": "2025-09-01T21:13:18.643000",
        "tle": {
            "line-1": "1 52688U 22053AJ  25244.27497075  .00001592  00000+0  11808-3 0  9996",
            "line-2": "2 52688  53.2166 274.3208 0001329  86.9441 273.1703 15.08836634182522"
        }
    },
    {
        "id": 1971,
        "name": "STARLINK-4517",
        "distance_km": 251.6,
        "elevation_deg": 87.74,
        "visible": true,
        "latitude": 51.95292179615803,
        "longitude": 8.061496074837505,
        "datetime_utc": "2025-09-01T21:13:18.643000",
        "tle": {
            "line-1": "1 53390U 22097C   25244.27314160  .00000892  00000+0  74105-4 0  9990",
            "line-2": "2 53390  53.2159 254.4480 0001105  81.5999 278.5118 15.08838924170224"
        }
    },
    {
        "id": 2063,
        "name": "STARLINK-4503",
        "distance_km": 475.47,
        "elevation_deg": 85.72,
        "visible": true,
        "latitude": 46.781377192832124,
        "longitude": 12.560344827273946,
        "datetime_utc": "2025-09-01T21:13:18.643000",
        "tle": {
            "line-1": "1 53528U 22101B   25244.26670091  .00001197  00000+0  93259-4 0  9996",
            "line-2": "2 53528  53.2174 204.4736 0001483  78.8998 281.2161 15.08840252167569"
        }
    },
    {
        "id": 2714,
        "name": "STARLINK-4786",
        "distance_km": 303.02,
        "elevation_deg": 87.28,
        "visible": true,
        "latitude": 53.363788948449695,
        "longitude": 13.470363946069437,
        "datetime_utc": "2025-09-01T21:13:18.643000",
        "tle": {
            "line-1": "1 55393U 23014C   25244.26109113  .00000988  00000+0  90534-4 0  9994",
            "line-2": "2 55393  70.0004 181.9730 0003027 268.6201  91.4611 14.98338181143684"
        }
    }
]